OBJECT_NAME,OBJECT_ID,EPOCH,MEAN_MOTION,ECCENTRICITY,INCLINATION,RA_OF_ASC_NODE,ARG_OF_PERICENTER,MEAN_ANOMALY,EPHEMERIS_TYPE,CLASSIFICATION_TYPE,NORAD_CAT_ID,ELEMENT_SET_NO,REV_AT_EPOCH,BSTAR,MEAN_MOTION_DOT,MEAN_MOTION_DDOT
COSMOS 2058,1990-010A,2026-06-14T03:46:40.381248,15.11993865,.00095756,82.4668,312.3425,11.7102,348.4349,0,U,20465,999,95681,.22310576E-3,.3861E-4,0
SL-14 R/B,1990-010B,2026-06-14T03:11:25.092384,14.83644502,.00193528,82.5017,176.8133,346.6482,13.4218,0,U,20466,999,94278,.38548437E-4,.343E-5,0
SL-14 R/B,1990-018B,2026-06-14T07:27:55.891584,14.82214404,.00172856,82.5210,132.7959,130.5413,229.7310,0,U,20511,999,93689,.39402041E-4,.339E-5,0
HST,1990-037B,2026-06-14T03:27:36.730368,15.30716351,.00019122,28.4715,101.3706,110.8714,249.2086,0,U,20580,999,78810,.19998963E-3,.6344E-4,0
SL-16 R/B,1990-046B,2026-06-14T06:17:08.510784,14.15025377,.00135804,70.9995,95.0915,166.1440,194.0058,0,U,20625,999,86205,.13710551E-3,.218E-5,0
COSMOS 2084,1990-055A,2026-06-13T22:34:58.448064,15.06104058,.000551,62.7910,7.1711,273.5813,86.4657,0,U,20663,999,95081,.15328E-3,.205E-4,0
SL-6 R/B(2),1990-055D,2026-06-14T01:22:37.936128,15.03994177,.00401185,62.7824,286.0268,4.6794,355.4672,0,U,20666,999,95268,.12224957E-3,.1518E-4,0
SL-8 R/B,1990-078B,2026-06-14T07:28:59.201184,14.92208183,.03516074,82.9001,164.2424,48.1550,314.9120,0,U,20775,999,82369,.53473734E-3,.1899E-3,0
SL-8 R/B,1991-006B,2026-06-14T05:46:00.734592,13.77505632,.00235616,82.9424,98.2259,122.3970,347.2305,0,U,21088,999,77736,.18436146E-4,.34E-6,0
OKEAN-3,1991-039A,2026-06-14T06:43:36.897024,15.05311250,.00143246,82.5158,243.1997,8.9153,351.2326,0,U,21397,999,87956,.16273182E-3,.236E-4,0
COSMOS 2151,1991-042A,2026-06-14T06:12:38.856384,15.00430492,.00138282,82.4960,350.5074,92.7806,267.5001,0,U,21422,999,87767,.12819402E-3,.1642E-4,0
SL-14 R/B,1991-042B,2026-06-14T05:59:13.749216,14.81900808,.0015486,82.4926,129.6505,285.5104,74.4400,0,U,21423,999,86737,.38998013E-4,.332E-5,0
ERS-1,1991-050A,2026-06-14T07:33:36.247968,14.39516404,.00307091,98.7797,185.9427,275.8820,83.8867,0,U,21574,999,82963,.12004257E-3,.33E-5,0
ARIANE 40 R/B,1991-050F,2026-06-14T03:16:44.921856,14.42955449,.00041341,98.1877,213.6723,127.8482,232.3084,0,U,21610,999,83290,.90289234E-4,.26E-5,0
INTERCOSMOS 25,1991-086A,2026-06-14T05:21:12.024576,12.12192085,.14841205,82.6051,251.6037,268.7934,74.3344,0,U,21819,999,50838,.11768151E-3,.59E-5,0
SL-8 R/B,1992-008B,2026-06-14T05:16:33.540960,13.75976146,.00336613,82.9264,195.9939,223.1981,211.0765,0,U,21876,999,72269,.12808506E-3,.14E-5,0
SL-8 R/B,1992-020B,2026-06-14T07:12:48.581856,13.75548516,.00299076,82.9306,82.0013,30.4386,83.1050,0,U,21938,999,71441,.36205605E-4,.5E-6,0
USA 81,1992-023A,2026-06-14T06:30:17.036928,14.32397480,.00027632,85.0076,75.6904,87.1332,273.0177,0,U,21949,999,10861,.47778497E-4,.149E-5,0
COSMOS 2219,1992-076A,2026-06-14T06:58:08.713632,14.14097306,.00164609,71.0576,176.1277,48.9076,311.3465,0,U,22219,999,73203,.13066521E-3,.202E-5,0
SL-16 R/B,1992-076B,2026-06-14T05:28:01.787808,14.16871314,.00146125,71.0004,345.0155,302.5402,230.0817,0,U,22220,999,73550,.43472357E-4,.39E-6,0
COSMOS 2221,1992-080A,2026-06-14T07:56:18.012192,14.96526781,.00130599,82.5030,186.5013,222.5282,137.4929,0,U,22236,999,79524,.11145663E-3,.1294E-4,0
SL-16 R/B,1992-093B,2026-06-14T06:35:01.502016,14.15462578,.00041299,71.0199,161.5066,193.3616,166.7398,0,U,22285,999,72682,-.12824117E-3,-.298E-5,0
COSMOS 2228,1992-094A,2026-06-14T05:09:01.315584,14.97576923,.00171772,82.5174,144.8901,342.6730,17.3904,0,U,22286,999,79050,.16150049E-3,.1917E-4,0
SL-16 R/B,1993-016B,2026-06-13T23:18:48.508992,14.15312174,.00104522,71.0083,12.9619,187.9335,172.1624,0,U,22566,999,71579,.19386478E-3,.33E-5,0
COSMOS 2242,1993-024A,2026-06-14T07:21:11.328768,14.96895701,.00156226,82.5180,174.2991,346.3653,13.7145,0,U,22626,999,79484,.13447715E-3,.1572E-4,0
SL-16 R/B,1993-059B,2026-06-14T07:31:52.317408,14.17247773,.00151339,70.9887,167.3632,58.9490,301.3117,0,U,22803,999,69322,.91694755E-4,.137E-5,0
ARIANE 40 R/B,1993-061H,2026-06-14T04:52:00.628320,14.32906746,.00106535,98.4819,232.1218,5.2878,354.8417,0,U,22830,999,70792,.7603811E-4,.165E-5,0
COSMOS 2278,1994-023A,2026-06-14T04:56:24.484416,14.14397050,.00105985,71.0548,333.1628,246.6863,113.3145,0,U,23087,999,65845,.13182193E-3,.205E-5,0
SL-16 R/B,1994-023B,2026-06-14T06:42:39.576672,14.15023376,.00029601,70.9994,228.0376,188.9949,171.1121,0,U,23088,999,65975,.19294984E-3,.326E-5,0
SL-16 R/B,1994-074B,2026-06-14T02:31:20.550144,14.79500066,.00050794,97.6992,191.9545,266.6768,160.8989,0,U,23343,999,70150,.58741517E-4,.39E-5,0
