COSMOS 2058             
1 20465U 90010A   26165.15741182  .00003861  00000+0  22311-3 0  9995
2 20465  82.4668 312.3425 0009575  11.7102 348.4349 15.11993865956813
SL-14 R/B               
1 20466U 90010B   26165.13292931  .00000343  00000+0  38548-4 0  9999
2 20466  82.5017 176.8133 0019352 346.6482  13.4218 14.83644502942781
SL-14 R/B               
1 20511U 90018B   26165.31106356  .00000339  00000+0  39402-4 0  9998
2 20511  82.5210 132.7959 0017285 130.5413 229.7310 14.82214404936894
HST                     
1 20580U 90037B   26165.14417512  .00006344  00000+0  19999-3 0  9995
2 20580  28.4715 101.3706 0001912 110.8714 249.2086 15.30716351788104
SL-16 R/B               
1 20625U 90046B   26165.26190406  .00000218  00000+0  13711-3 0  9998
2 20625  70.9995  95.0915 0013580 166.1440 194.0058 14.15025377862057
COSMOS 2084             
1 20663U 90055A   26164.94095426  .00002050  00000+0  15328-3 0  9992
2 20663  62.7910   7.1711 0005510 273.5813  86.4657 15.06104058950810
SL-6 R/B(2)             
1 20666U 90055D   26165.05738352  .00001518  00000+0  12225-3 0  9991
2 20666  62.7824 286.0268 0040118   4.6794 355.4672 15.03994177952685
SL-8 R/B                
1 20775U 90078B   26165.31179631  .00018990  00000+0  53474-3 0  9998
2 20775  82.9001 164.2424 0351607  48.1550 314.9120 14.92208183823697
SL-8 R/B                
1 21088U 91006B   26165.24028628  .00000034  00000+0  18436-4 0  9999
2 21088  82.9424  98.2259 0023561 122.3970 347.2305 13.77505632777369
OKEAN-3                 
1 21397U 91039A   26165.28028816  .00002360  00000+0  16273-3 0  9991
2 21397  82.5158 243.1997 0014324   8.9153 351.2326 15.05311250879568
COSMOS 2151             
1 21422U 91042A   26165.25878306  .00001642  00000+0  12819-3 0  9992
2 21422  82.4960 350.5074 0013828  92.7806 267.5001 15.00430492877674
SL-14 R/B               
1 21423U 91042B   26165.24946469  .00000332  00000+0  38998-4 0  9990
2 21423  82.4926 129.6505 0015486 285.5104  74.4400 14.81900808867371
ERS-1                   
1 21574U 91050A   26165.31500287  .00000330  00000+0  12004-3 0  9995
2 21574  98.7797 185.9427 0030709 275.8820  83.8867 14.39516404829630
ARIANE 40 R/B           
1 21610U 91050F   26165.13663104  .00000260  00000+0  90289-4 0  9998
2 21610  98.1877 213.6723 0004134 127.8482 232.3084 14.42955449832901
INTERCOSMOS 25          
1 21819U 91086A   26165.22305584  .00000590  00000+0  11768-3 0  9993
2 21819  82.6051 251.6037 1484120 268.7934  74.3344 12.12192085508388
SL-8 R/B                
1 21876U 92008B   26165.21983265  .00000140  00000+0  12809-3 0  9996
2 21876  82.9264 195.9939 0033661 223.1981 211.0765 13.75976146722694
SL-8 R/B                
1 21938U 92020B   26165.30056229  .00000050  00000+0  36206-4 0  9998
2 21938  82.9306  82.0013 0029907  30.4386  83.1050 13.75548516714417
USA 81                  
1 21949U 92023A   26165.27103052  .00000149  00000+0  47778-4 0  9991
2 21949  85.0076  75.6904 0002763  87.1332 273.0177 14.32397480108610
COSMOS 2219             
1 22219U 92076A   26165.29037863  .00000202  00000+0  13067-3 0  9991
2 22219  71.0576 176.1277 0016460  48.9076 311.3465 14.14097306732039
SL-16 R/B               
1 22220U 92076B   26165.22779847  .00000039  00000+0  43472-4 0  9993
2 22220  71.0004 345.0155 0014612 302.5402 230.0817 14.16871314735502
COSMOS 2221             
1 22236U 92080A   26165.33076403  .00001294  00000+0  11146-3 0  9991
2 22236  82.5030 186.5013 0013059 222.5282 137.4929 14.96526781795241
SL-16 R/B               
1 22285U 92093B   26165.27432294 -.00000298  00000+0 -12824-3 0  9995
2 22285  71.0199 161.5066 0004129 193.3616 166.7398 14.15462578726826
COSMOS 2228             
1 22286U 92094A   26165.21459856  .00001917  00000+0  16150-3 0  9997
2 22286  82.5174 144.8901 0017177 342.6730  17.3904 14.97576923790502
SL-16 R/B               
1 22566U 93016B   26164.97139478  .00000330  00000+0  19386-3 0  9992
2 22566  71.0083  12.9619 0010452 187.9335 172.1624 14.15312174715799
COSMOS 2242             
1 22626U 93024A   26165.30638112  .00001572  00000+0  13448-3 0  9997
2 22626  82.5180 174.2991 0015622 346.3653  13.7145 14.96895701794846
SL-16 R/B               
1 22803U 93059B   26165.31379997  .00000137  00000+0  91695-4 0  9993
2 22803  70.9887 167.3632 0015133  58.9490 301.3117 14.17247773693223
ARIANE 40 R/B           
1 22830U 93061H   26165.20278505  .00000165  00000+0  76038-4 0  9992
2 22830  98.4819 232.1218 0010653   5.2878 354.8417 14.32906746707929
COSMOS 2278             
1 23087U 94023A   26165.20583894  .00000205  00000+0  13182-3 0  9991
2 23087  71.0548 333.1628 0010598 246.6863 113.3145 14.14397050658451
SL-16 R/B               
1 23088U 94023B   26165.27962473  .00000326  00000+0  19295-3 0  9998
2 23088  70.9994 228.0376 0002960 188.9949 171.1121 14.15023376659752
SL-16 R/B               
1 23343U 94074B   26165.10509896  .00000390  00000+0  58742-4 0  9998
2 23343  97.6992 191.9545 0005079 266.6768 160.8989 14.79500066701507
